[{"OBJECT_NAME":"STARLINK-31466","OBJECT_ID":"2024-064Y","EPOCH":"2026-03-09T07:26:52.632960","MEAN_MOTION":15.27564482,"ECCENTRICITY":0.00018687,"INCLINATION":43.0047,"RA_OF_ASC_NODE":58.6662,"ARG_OF_PERICENTER":251.4597,"MEAN_ANOMALY":108.6052,"EPHEMERIS_TYPE":0,"CLASSIFICATION_TYPE":"U","NORAD_CAT_ID":59420,"ELEMENT_SET_NO":999,"REV_AT_EPOCH":10916,"BSTAR":0.00011377784,"MEAN_MOTION_DOT":2.868e-5,"MEAN_MOTION_DDOT":0},{"OBJECT_NAME":"SIMSAT 2","OBJECT_ID":"2000-026B","EPOCH":"2026-03-09T20:25:01.673184","MEAN_MOTION":15.29036787,"ECCENTRICITY":0.00037035,"INCLINATION":86.3514,"RA_OF_ASC_NODE":176.4271,"ARG_OF_PERICENTER":287.9875,"MEAN_ANOMALY":72.0969,"EPHEMERIS_TYPE":0,"CLASSIFICATION_TYPE":"U","NORAD_CAT_ID":26366,"ELEMENT_SET_NO":999,"REV_AT_EPOCH":42803,"BSTAR":0.00013465771,"MEAN_MOTION_DOT":3.833e-5,"MEAN_MOTION_DDOT":0}]
